[{"OBJECT_NAME":"STARLINK-4277","OBJECT_ID":"2022-076Z","EPOCH":"2026-03-09T10:33:41.985792","MEAN_MOTION":15.0883725,"ECCENTRICITY":0.0001461,"INCLINATION":53.2171,"RA_OF_ASC_NODE":85.2397,"ARG_OF_PERICENTER":93.6463,"MEAN_ANOMALY":266.4696,"EPHEMERIS_TYPE":0,"CLASSIFICATION_TYPE":"U","NORAD_CAT_ID":53009,"ELEMENT_SET_NO":999,"REV_AT_EPOCH":20294,"BSTAR":-1.054819e-5,"MEAN_MOTION_DOT":-4.56e-6,"MEAN_MOTION_DDOT":0},{"OBJECT_NAME":"CZ-4 DEB","OBJECT_ID":"2006-046H","EPOCH":"2026-03-09T02:48:41.934528","MEAN_MOTION":15.12857559,"ECCENTRICITY":0.00451328,"INCLINATION":97.5575,"RA_OF_ASC_NODE":118.4736,"ARG_OF_PERICENTER":295.6188,"MEAN_ANOMALY":89.8626,"EPHEMERIS_TYPE":0,"CLASSIFICATION_TYPE":"U","NORAD_CAT_ID":35375,"ELEMENT_SET_NO":999,"REV_AT_EPOCH":5626,"BSTAR":0.00023308037,"MEAN_MOTION_DOT":4.131e-5,"MEAN_MOTION_DDOT":0}]
